STARLINK-34851          
1 66447U 25259AB  25337.16668980 -.00126046  00000+0 -21733-2 0  9992
2 66447  43.0002 103.2118 0001861 273.0106 171.0132 15.50630784  4636
STARLINK-35355          
1 66448U 25259AC  25337.16668980 -.00181851  00000+0 -31531-2 0  9995
2 66448  43.0003 103.2075 0001753 264.5413 181.3320 15.50695772  4749
STARLINK-34720          
1 66449U 25259AD  25337.16668980 -.00292817  00000+0 -51463-2 0  9997
2 66449  43.0001 103.2017 0001536 260.2932 187.5632 15.50730103  4632
STARLINK-35334          
1 66450U 25259AE  25337.16668980 -.00239839  00000+0 -41886-2 0  9992
2 66450  43.0003 103.1963 0001664 263.8992 185.8140 15.50712380  4746
VIASAT-3 F2             
1 66454U 25261A   25336.18891936 -.00000047  00000+0  00000+0 0  9995
2 66454   5.5753 293.3183 2341645 183.8775 124.0264  2.28150311   401
ATLAS 5 CENTAUR R/B     
1 66455U 25261B   25336.52124859 -.00000049  00000+0  00000+0 0  9999
2 66455   6.1594 292.6378 2329672 184.4299  27.8759  2.28259432   418
STARLINK-35643          
1 66456U 25262A   25337.16668980 -.02152553  00000+0 -27786-1 0  9993
2 66456  42.9999 127.2222 0001565 280.0571 162.9832 15.61249677  4103
STARLINK-35466          
1 66457U 25262B   25337.16668980 -.02175429  00000+0 -28101-1 0  9993
2 66457  42.9999 127.2123 0001702 280.1280 166.7413 15.61264717  4104
STARLINK-35684          
1 66458U 25262C   25337.16668980 -.02168529  00000+0 -28004-1 0  9999
2 66458  43.0000 127.2170 0001715 276.5397 168.4130 15.61260750  4102
STARLINK-35449          
1 66459U 25262D   25337.16668980 -.02172727  00000+0 -28064-1 0  9991
2 66459  42.9996 127.2070 0001596 280.9556 167.8314 15.61263489  4106
STARLINK-35424          
1 66460U 25262E   25337.16668980 -.02168450  00000+0 -28009-1 0  9990
2 66460  42.9995 127.2021 0001440 278.4379 172.2732 15.61258339  4108
STARLINK-35132          
1 66461U 25262F   25337.16668980 -.02157442  00000+0 -27852-1 0  9995
2 66461  42.9996 127.1971 0001498 280.8679 171.7547 15.61254809  4102
